     2.100          NAVIGATION                              RINEX VERSION / TYPE
fic2rin                                 01/11/2010 00:59:20 PGM / RUN BY / DATE
                                                            END OF HEADER
25 10  1 10  4  0  0.0  .758050009608D-04  .852651282912D-11  .000000000000D+00
     .112000000000D+03 -.840625000000D+02  .438875423780D-08  .645666539494D+00
    -.452995300293D-05  .114918228937D-01  .606104731560D-05  .515369056702D+04
     .144000000000D+05 -.102445483208D-06 -.148112237730D+01 -.143423676491D-06
     .971916055039D+00  .272437500000D+03 -.121157092467D+01 -.822677124947D-08
    -.753602819154D-10  .100000000000D+01  .156600000000D+04  .000000000000D+00
     .340000000000D+01  .630000000000D+02 -.745058059692D-08  .112000000000D+03
     .720600000000D+04  .400000000000D+01
27 10  1 10  4  0  0.0  .115841161460D-03  .329691829393D-11  .000000000000D+00
     .130000000000D+03 -.930625000000D+02  .413660087746D-08 -.156663904570D+01
    -.426545739174D-05  .217553559924D-01  .636093318462D-05  .515368982506D+04
     .144000000000D+05 -.558793544769D-08 -.144396742384D+01  .566244125366D-06
     .976810433264D+00  .263250000000D+03 -.148730544737D+01 -.789854329175D-08
    -.628597612185D-10  .100000000000D+01  .156600000000D+04  .000000000000D+00
     .485000000000D+01  .000000000000D+00 -.419095158577D-08  .130000000000D+03
     .720600000000D+04  .400000000000D+01
28 10  1 10  4  0  0.0 -.238125212491D-04  .454747350886D-12  .000000000000D+00
     .790000000000D+02 -.316562500000D+02  .442518432669D-08 -.529144099216D+00
    -.159069895744D-05  .156509651570D-01  .887550413609D-05  .515365842438D+04
     .144000000000D+05 -.113621354103D-06 -.308586896580D+00  .195577740669D-06
     .969195363883D+00  .215531250000D+03 -.199364064368D+01 -.812926718804D-08
     .336085427879D-09  .100000000000D+01  .156600000000D+04  .000000000000D+00
     .240000000000D+01  .000000000000D+00 -.107102096081D-07  .790000000000D+02
     .720600000000D+04  .400000000000D+01
29 10  1 10  4  0  0.0  .888411886990D-04  .295585778076D-11  .000000000000D+00
     .109000000000D+03 -.406250000000D+01  .481448625696D-08  .161147553476D+01
    -.311061739922D-06  .287927663885D-02  .664219260216D-05  .515353005409D+04
     .144000000000D+05  .838190317154D-07  .734202388465D+00 -.577419996262D-07
     .960222699210D+00  .250656250000D+03 -.127631453523D+01 -.799140430264D-08
     .535736601294D-10  .100000000000D+01  .156600000000D+04  .000000000000D+00
     .240000000000D+01  .000000000000D+00 -.884756445885D-08  .109000000000D+03
     .720600000000D+04  .400000000000D+01
30 10  1 10  4  0  0.0  .209243502468D-03  .329691829393D-11  .000000000000D+00
     .590000000000D+02 -.484687500000D+02  .467483758289D-08 -.300336189294D-01
    -.253506004810D-05  .118912883336D-01  .898353755474D-05  .515363144684D+04
     .144000000000D+05 -.124797224998D-06 -.385131981401D+00  .316649675369D-07
     .954845999820D+00  .204750000000D+03  .147043074877D+01 -.817284043161D-08
     .308941440080D-09  .100000000000D+01  .156600000000D+04  .000000000000D+00
     .340000000000D+01  .000000000000D+00 -.791624188423D-08  .590000000000D+02
     .720600000000D+04  .400000000000D+01
32 10  1 10  4  0  0.0  .120164826512D-03 -.795807864051D-11  .000000000000D+00
     .780000000000D+02  .105281250000D+03  .425874882255D-08  .310980177161D+01
     .536441802979D-05  .130041039083D-01  .686571002007D-05  .515362767601D+04
     .144000000000D+05  .100582838058D-06  .288540605041D+01  .227242708206D-06
     .961215820166D+00  .242906250000D+03 -.103914958729D+01 -.778282418587D-08
     .250010413937D-10  .100000000000D+01  .156600000000D+04  .000000000000D+00
     .240000000000D+01  .000000000000D+00 -.325962901115D-08  .780000000000D+02
     .720600000000D+04  .400000000000D+01
27 10  1 10  3 59 44.0  .115843489766D-03  .329691829393D-11  .000000000000D+00
     .600000000000D+01 -.930625000000D+02  .413660087746D-08 -.156897185290D+01
    -.426545739174D-05  .217553592520D-01  .636093318462D-05  .515368982887D+04
     .143840000000D+05 -.558793544769D-08 -.144396729657D+01  .566244125366D-06
     .976810425949D+00  .263250000000D+03 -.148730640120D+01 -.789854329175D-08
    -.628597612185D-10  .100000000000D+01  .156600000000D+04  .000000000000D+00
     .240000000000D+01  .000000000000D+00 -.419095158577D-08  .600000000000D+01
     .948600000000D+04  .400000000000D+01
19 10  1 10  3 59 44.0 -.872462987900D-05 -.216004991671D-11  .000000000000D+00
     .210000000000D+02 -.628125000000D+01  .483055835500D-08 -.179576011810D+01
    -.327825546265D-06  .603083451279D-02  .673532485962D-05  .515368095970D+04
     .143840000000D+05 -.428408384323D-07  .781389084678D+00 -.782310962677D-07
     .957551128454D+00  .250125000000D+03 -.181642076384D+00 -.808462247126D-08
     .714315468392D-10  .100000000000D+01  .156600000000D+04  .000000000000D+00
     .240000000000D+01  .000000000000D+00 -.144354999065D-07  .210000000000D+02
     .960600000000D+04  .400000000000D+01
15 10  1 10  3 59 44.0 -.314222648740D-03  .204636307899D-11  .000000000000D+00
     .160000000000D+02  .172500000000D+02  .486234539335D-08 -.151483147403D+01
     .748783349991D-06  .227333966177D-02  .202283263206D-05  .515371044731D+04
     .143840000000D+05 -.502914190292D-07 -.245237895911D+01 -.130385160446D-07
     .955007084656D+00  .339750000000D+03 -.368029978977D+00 -.846642408912D-08
     .689314426998D-10  .100000000000D+01  .156600000000D+04  .000000000000D+00
     .240000000000D+01  .000000000000D+00 -.977888703346D-08  .160000000000D+02
     .117360000000D+05  .400000000000D+01
22 10  1 10  3 59 44.0  .181956216693D-03 -.102318153949D-11  .000000000000D+00
     .160000000000D+02  .976875000000D+02  .496734976720D-08 -.760315275760D+00
     .515393912792D-05  .512565835379D-02  .749528408051D-05  .515366662407D+04
     .143840000000D+05 -.782310962677D-07  .283021959149D+01  .726431608200D-07
     .937095215171D+00  .223250000000D+03 -.188043080585D+01 -.833606151614D-08
     .175007289756D-10  .100000000000D+01  .156600000000D+04  .000000000000D+00
     .240000000000D+01  .000000000000D+00 -.176951289177D-07  .160000000000D+02
     .121560000000D+05  .400000000000D+01
15 10  1 10  5 59 44.0 -.314208213240D-03  .204636307899D-11  .000000000000D+00
     .170000000000D+02  .140312500000D+02  .479984278986D-08 -.464514041812D+00
     .668689608574D-06  .227372290101D-02  .195577740669D-05  .515371139908D+04
     .215840000000D+05 -.186264514923D-07 -.245243975652D+01 -.484287738800D-07
     .955007428441D+00  .337093750000D+03 -.368186972031D+00 -.847749597888D-08
     .321441960776D-10  .100000000000D+01  .156600000000D+04  .000000000000D+00
     .240000000000D+01  .000000000000D+00 -.977888703346D-08  .170000000000D+02
     .144060000000D+05  .400000000000D+01
19 10  1 10  5 59 44.0 -.874046236277D-05 -.216004991671D-11  .000000000000D+00
     .220000000000D+02 -.584375000000D+01  .485448792319D-08 -.745667085810D+00
    -.314787030220D-06  .603070249781D-02  .650808215141D-05  .515367994308D+04
     .215840000000D+05  .465661287308D-07  .781331060958D+00 -.115483999252D-06
     .957551523442D+00  .253875000000D+03 -.181556148965D+00 -.811248077453D-08
     .232152527227D-10  .100000000000D+01  .156600000000D+04  .000000000000D+00
     .240000000000D+01  .000000000000D+00 -.144354999065D-07  .220000000000D+02
     .144060000000D+05  .400000000000D+01
22 10  1 10  5 59 44.0  .181949231774D-03 -.102318153949D-11  .000000000000D+00
     .170000000000D+02  .106500000000D+03  .490949021426D-08  .289947478436D+00
     .550411641598D-05  .512689072639D-02  .759400427341D-05  .515366906738D+04
     .215840000000D+05 -.875443220139D-07  .283015946995D+01  .931322574615D-08
     .937095330742D+00  .220156250000D+03 -.188050613296D+01 -.835034782550D-08
     .750031241812D-11  .100000000000D+01  .156600000000D+04  .000000000000D+00
     .240000000000D+01  .000000000000D+00 -.176951289177D-07  .170000000000D+02
     .144060000000D+05  .400000000000D+01
27 10  1 10  5 59 44.0  .115867238492D-03  .329691829393D-11  .000000000000D+00
     .150000000000D+02 -.905312500000D+02  .418696011798D-08 -.518811497118D+00
    -.480562448502D-05  .217556817224D-01  .700540840626D-05  .515368979454D+04
     .215840000000D+05 -.283122062683D-06 -.144402741372D+01  .106170773506D-06
     .976808834294D+00  .258250000000D+03 -.148729691417D+01 -.833177562333D-08
     .789318592573D-10  .100000000000D+01  .156600000000D+04  .000000000000D+00
     .240000000000D+01  .000000000000D+00 -.419095158577D-08  .150000000000D+02
     .144060000000D+05  .400000000000D+01
 1 10  1 10  6  0  0.0 -.777267850935D-04 -.329691829393D-11  .000000000000D+00
     .270000000000D+02 -.475937500000D+02  .567273629224D-08  .144461844140D+01
    -.245682895184D-05  .382868968882D-02  .901520252228D-05  .515365465546D+04
     .216000000000D+05 -.931322574615D-07 -.347375947088D+00  .763684511185D-07
     .963567453664D+00  .205625000000D+03  .939030547534D+00 -.786675625340D-08
     .387873299337D-09  .100000000000D+01  .156600000000D+04  .000000000000D+00
     .240000000000D+01  .630000000000D+02 -.190921127796D-07  .270000000000D+02
     .144060000000D+05  .400000000000D+01
 2 10  1 10  6  0  0.0  .213775318116D-03  .432009983342D-11  .000000000000D+00
     .360000000000D+02  .201562500000D+02  .495270630010D-08 -.118651850522D+01
     .105425715446D-05  .926265679300D-02  .849924981594D-05  .515375639153D+04
     .216000000000D+05 -.372529029846D-07  .173771997268D+01 -.184401869774D-06
     .939931345193D+00  .207500000000D+03  .293972525639D+01 -.806605026908D-08
    -.267868300647D-09  .100000000000D+01  .156600000000D+04  .000000000000D+00
     .240000000000D+01  .000000000000D+00 -.172294676304D-07  .360000000000D+02
     .144060000000D+05  .400000000000D+01
